#cP2012 11  6  0  0  0.00000000     288 u+U   IGb08 FIT  TUM
## 1713 172800.00000000   300.00000000 56237 0.0000000000000
+    3   J01E11E12  0  0  0  0  0  0  0  0  0  0  0  0  0  0
+          0  0  0  0  0  0  0  0  0  0  0  0  0  0  0  0  0
+          0  0  0  0  0  0  0  0  0  0  0  0  0  0  0  0  0
+          0  0  0  0  0  0  0  0  0  0  0  0  0  0  0  0  0
+          0  0  0  0  0  0  0  0  0  0  0  0  0  0  0  0  0
++         4  1  1  0  0  0  0  0  0  0  0  0  0  0  0  0  0
++         0  0  0  0  0  0  0  0  0  0  0  0  0  0  0  0  0
++         0  0  0  0  0  0  0  0  0  0  0  0  0  0  0  0  0
++         0  0  0  0  0  0  0  0  0  0  0  0  0  0  0  0  0
++         0  0  0  0  0  0  0  0  0  0  0  0  0  0  0  0  0
%c E  cc GPS ccc cccc cccc cccc cccc ccccc ccccc ccccc ccccc
%c cc cc ccc ccc cccc cccc cccc cccc ccccc ccccc ccccc ccccc
%f  1.2500000  1.025000000  0.00000000000  0.000000000000000
%f  0.0000000  0.000000000  0.00000000000  0.000000000000000
%i    0    0    0    0      0      0      0      0         0
%i    0    0    0    0      0      0      0      0         0
/* Galileo+QZSS orbits for MGEX based on CONGO+MGEX data    
/* Technische Universitaet Muenchen (TUM)                   
/* Further information: www.iapg.bv.tum.de/mgex             
/* PCV:IGS08_1645 OL/AL:FES2004  NONE     YN ORB:CoN CLK:CoN
*  2012 11  6  6 40  0.00000000
PJ01 -23927.322533  24769.316229  29437.959423    -20.729109
PE11   7552.650046  15306.861661  24177.879861    153.455104
PE12 -11365.769914  20244.372594  18360.315593    446.120178
*  2012 11  6  6 45  0.00000000
PJ01 -24025.252028  24726.811073  29384.794351    -20.731088
PE11   6906.904004  15641.638114  24156.757226    153.570673
PE12 -11844.460501  20501.720175  17762.436573    446.145717
*  2012 11  6  6 50  0.00000000
PJ01 -24127.122868  24690.969531  29320.289007    -20.732956
PE11   6269.860612  15990.324377  24102.209880    153.686223
PE12 -12301.131186  20760.983601  17139.985931    446.171242
*  2012 11  6  6 55  0.00000000
PJ01 -24232.644989  24661.949863  29244.462883    -20.734851
PE11   5642.689374  16352.198536  24014.313430    153.801778
PE12 -12735.311224  21020.954121  16493.824480    446.196750
*  2012 11  6  7  0  0.00000000
PJ01 -24341.521176  24639.897301  29157.338897    -20.736823
PE11   5026.517901  16726.476481  23893.189625    153.917374
PE12 -13146.603532  21280.403352  15824.845859    446.222280
*  2012 11  6  7  5  0.00000000
PJ01 -24453.447606  24624.943760  29058.943391    -20.738728
PE11   4422.428219  17112.314538  23739.006186    154.032973
PE12 -13534.685817  21538.087644  15133.975287    446.247814
*  2012 11  6  7 10  0.00000000
PJ01 -24568.114387  24617.207568  28949.306148    -20.740606
PE11   3831.453260  17508.812293  23551.976576    154.148526
PE12 -13899.311432  21792.752489  14422.168300    446.273360
*  2012 11  6  7 15  0.00000000
PJ01 -24685.206122  24616.793224  28828.460391    -20.742588
PE11   3254.573499  17915.015640  23332.359700    154.264126
PE12 -14240.309992  22043.136994  13690.409412    446.298904
*  2012 11  6  7 20  0.00000000
PJ01 -24804.402474  24623.791163  28696.442798    -20.744508
PE11   2692.713792  18329.920002  23080.459551    154.379697
PE12 -14557.587702  22287.978356  12939.710773    446.324447
*  2012 11  6  7 25  0.00000000
PJ01 -24925.378741  24638.277564  28553.293505    -20.746413
PE11   2146.740406  18752.473745  22796.624786    154.495281
PE12 -14851.127431  22526.016369  12171.110751    446.349945
*  2012 11  6  7 30  0.00000000
PJ01 -25047.806443  24660.314157  28399.056123    -20.748378
PE11   1617.458253  19181.581748  22481.248245    154.610871
PE12 -15120.988522  22755.997909  11385.672514    446.375491
*  2012 11  6  7 35  0.00000000
PJ01 -25171.353909  24689.948076  28233.777742    -20.750253
PE11   1105.608343  19616.109142  22134.766406    154.726446
PE12 -15367.306330  22976.681414  10584.482544    446.401036
*  2012 11  6  7 40  0.00000000
PJ01 -25295.686876  24727.211718  28057.508947    -20.752143
PE11    611.865455  20054.885180  21757.658781    154.841951
PE12 -15590.291495  23186.841317   9768.649141    446.426570
*  2012 11  6  7 45  0.00000000
PJ01 -25420.469095  24772.122631  27870.303831    -20.754123
PE11    136.836048  20496.707245  21350.447258    154.957514
PE12 -15790.228965  23385.272426   8939.300890    446.452105
*  2012 11  6  7 50  0.00000000
PJ01 -25545.362936  24824.683431  27672.220004    -20.756025
PE11   -318.943595  20940.344965  20913.695370    155.072986
PE12 -15967.476749  23570.794248   8097.585094    446.477649
*  2012 11  6  7 55  0.00000000
PJ01 -25670.030000  24884.881729  27463.318611    -20.757896
PE11   -755.008969  21384.544436  20448.007521    155.188484
PE12 -16122.464420  23742.255217   7244.666192    446.503179
*  2012 11  6  8  0  0.00000000
PJ01 -25794.131736  24952.690098  27243.664345    -20.759853
PE11  -1170.968714  21828.032531  19954.028148    155.304026
PE12 -16255.691379  23898.536835   6381.724140    446.528721
*  2012 11  6  8  5  0.00000000
PJ01 -25917.330055  25028.066057  27013.325460    -20.761777
PE11  -1566.505700  22269.521270  19432.440832    155.419543
PE12 -16367.724862  24038.557700   5509.952780    446.554249
*  2012 11  6  8 10  0.00000000
PJ01 -26039.287949  25110.952070  26772.373792    -20.763651
PE11  -1941.377881  22707.712264  18883.967346    155.535072
PE12 -16459.197725  24161.277401   4630.558184    446.579802
*  2012 11  6  8 15  0.00000000
PJ01 -26159.670108  25201.275591  26520.884773    -20.765635
PE11  -2295.418856  23141.301178  18309.366664    155.650580
PE12 -16530.805988  24265.700283   3744.756993    446.605357
*  2012 11  6  8 20  0.00000000
PJ01 -26278.143542  25298.949113  26258.937445    -20.767581
PE11  -2628.538200  23568.982238  17709.433904    155.766188
PE12 -16583.306181  24350.879053   2853.774715    446.630847
*  2012 11  6  8 25  0.00000000
PJ01 -26394.378192  25403.870250  25986.614482    -20.769429
PE11  -2940.721494  23989.452739  17084.999230    155.881750
PE12 -16617.512458  24415.918224   1958.844037    446.656386
*  2012 11  6  8 30  0.00000000
PJ01 -26508.047546  25515.921846  25704.002205    -20.771403
PE11  -3232.030110  24401.417538  16436.926706    155.997332
PE12 -16634.293528  24459.977380   1061.203123    446.681899
*  2012 11  6  8 35  0.00000000
PJ01 -26618.829249  25634.972106  25411.190601    -20.773360
PE11  -3502.600733  24803.593546  15766.113094    156.112838
PE12 -16634.569388  24482.274256    162.093879    446.707431
*  2012 11  6  8 40  0.00000000
PJ01 -26726.405712  25760.874741  25108.273347    -20.775224
PE11  -3752.644606  25194.714158  15073.486618    156.228340
PE12 -16619.307890  24482.087609   -737.239745    446.732944
*  2012 11  6  8 45  0.00000000
PJ01 -26830.464710  25893.469164  24795.347818    -20.777182
PE11  -3982.446522  25573.533648  14360.005673    156.343938
PE12 -16589.521128  24458.759894  -1635.553500    446.758500
*  2012 11  6  8 50  0.00000000
PJ01 -26930.699976  26032.580678  24472.515118    -20.779025
PE11  -4192.363558  25938.831485  13626.657505    156.459490
PE12 -16546.261686  24411.699705  -2531.604545    446.784023
*  2012 11  6  8 55  0.00000000
PJ01 -27026.811791  26178.020714  24139.880093    -20.780921
PE11  -4382.823560  26289.416573  12874.456838    156.575089
PE12 -16490.618741  24340.384004  -3424.153183    446.809533
*  2012 11  6  9  0  0.00000000
PJ01 -27118.507567  26329.587076  23797.551354    -20.782891
PE11  -4554.323375  26624.131379  12104.444473    156.690609
PE12 -16423.714045  24244.360099  -4311.964568    446.835062
*  2012 11  6  9  5  0.00000000
PJ01 -27205.502412  26487.064220  23445.641295    -20.784822
PE11  -4707.426844  26941.855968  11317.685843    156.806136
PE12 -16346.697785  24123.247395  -5193.810425    446.860602
*  2012 11  6  9 10  0.00000000
PJ01 -27287.519695  26650.223554  23084.266111    -20.786735
PE11  -4842.762559  27241.511893  10515.269537    156.921667
PE12 -16260.744361  23976.738884  -6068.470748    446.886123
*  2012 11  6  9 15  0.00000000
PJ01 -27364.291595  26818.823757  22713.545828    -20.788684
PE11  -4961.021400  27522.065952   9698.305799    157.037274
PE12 -16167.048071  23804.602391  -6934.735485    446.911632
*  2012 11  6  9 20  0.00000000
PJ01 -27435.559646  26992.611122  22333.604309    -20.790628
PE11  -5062.953853  27782.533791   8867.924980    157.152833
PE12 -16066.818737  23606.681550  -7791.406228    446.937162
*  2012 11  6  9 25  0.00000000
PJ01 -27501.075256  27171.319932  21944.569287    -20.792499
PE11  -5149.367110  28021.983340   8025.275982    157.268332
PE12 -15961.277274  23382.896533  -8637.297855    446.962666
*  2012 11  6  9 30  0.00000000
PJ01 -27560.600224  27354.672843  21546.572372    -20.794456
PE11  -5221.121985  28239.538072   7171.524657    157.383856
PE12 -15851.651220  23133.244505  -9471.240190    446.988186
*  2012 11  6  9 35  0.00000000
PJ01 -27613.907238  27542.381298  21139.749083    -20.796409
PE11  -5279.129635  28434.380068   6307.852200    157.499367
PE12 -15739.170260  22857.799817 -10292.079607    447.013713
*  2012 11  6  9 40  0.00000000
PJ01 -27660.780364  27734.145960  20724.238857    -20.798249
PE11  -5324.348110  28605.752887   5435.453506    157.614911
PE12 -15625.061729  22556.713928 -11098.680642    447.039275
*  2012 11  6  9 45  0.00000000
PJ01 -27701.015506  27929.657166  20300.185076    -20.800233
PE11  -5357.778734  28752.964220   4555.535522    157.730441
PE12 -15510.546138  22230.215069 -11889.927547    447.064784
*  2012 11  6  9 50  0.00000000
PJ01 -27734.420860  28128.595405  19867.735075    -20.802158
PE11  -5380.462339  28875.388329   3669.315567    157.846003
PE12 -15396.832717  21878.607637 -12664.725855    447.090307
*  2012 11  6  9 55  0.00000000
PJ01 -27760.817353  28330.631808  19427.040167    -20.804019
PE11  -5393.475364  28972.468255   2778.019649    157.961614
PE12 -15285.115010  21502.271320 -13422.003879    447.115865
EOF
